SL-16 R/B               
1 22566U 93016B   26038.10597419 -.00000084  00000+0 -18897-4 0  9995
2 22566  71.0072 279.4199 0010199 356.0853   4.0188 14.15304015697840
COSMOS 2242             
1 22626U 93024A   26038.14548498  .00002743  00000+0  23901-3 0  9991
2 22626  82.5193 295.9303 0017688  51.2919 308.9881 14.96422244775820
SL-16 R/B               
1 22803U 93059B   26038.19751442  .00000225  00000+0  13515-3 0  9999
2 22803  70.9892  75.4314 0019491 258.3193 101.5744 14.17226937675216
ARIANE 40 R/B           
1 22830U 93061H   26038.18248737  .00000279  00000+0  11820-3 0  9995
2 22830  98.4981 107.6623 0010913  20.5486 339.6135 14.32844723689731
COSMOS 2278             
1 23087U 94023A   26037.97417979 -.00000189  00000+0 -73860-4 0  9996
2 23087  71.0502 239.3599 0006539  71.3945 288.7887 14.14364063640469
SL-16 R/B               
1 23088U 94023B   26037.75182328 -.00000023  00000+0  12581-4 0  9999
2 23088  70.9998 135.8619 0004457 314.1094  45.9661 14.15003498641715
SL-16 R/B               
1 23343U 94074B   26038.07916123  .00000690  00000+0  99252-4 0  9992
2 23343  97.7149  70.1312 0005784 332.8982  50.3189 14.79371264682722
SL-16 R/B               
1 23405U 94077B   26038.16950539  .00000037  00000+0  43333-4 0  9997
2 23405  70.9814  56.6979 0004363 237.7421 122.3279 14.15556792611918
ARIANE 40+ R/B          
1 23561U 95021B   26038.16764017  .00000409  00000+0  14436-3 0  9998
2 23561  98.4560 110.0542 0005994 226.3215 187.7433 14.39749779614859
SL-16 R/B               
1 23705U 95058B   26038.03366161  .00000310  00000+0  18300-3 0  9997
2 23705  71.0189 244.6166 0012370 176.1023 184.0199 14.15491427563517
SL-16 R/B               
1 24298U 96051B   26038.00455923  .00000078  00000+0  68908-4 0  9992
2 24298  70.7565 240.1888 0017656 190.8812 169.1929 14.12406829517313
ORBVIEW 2 (SEASTAR)     
1 24883U 97037A   26038.02752419  .00000439  00000+0  16890-3 0  9992
2 24883  98.8513 201.5363 0002871 134.4893 225.6527 14.35470823504073
