CCSDS_OMM_VERS = 2.0
CREATION_DATE  = 
ORIGINATOR     = 

OBJECT_NAME    = SL-16 R/B
OBJECT_ID      = 1993-016B
CENTER_NAME    = EARTH
REF_FRAME      = TEME
TIME_SYSTEM    = UTC
MEAN_ELEMENT_THEORY = SGP/SGP4

EPOCH          = 2026-02-07T02:32:36.170016
MEAN_MOTION    = 14.15304015
ECCENTRICITY   = .0010199
INCLINATION    = 71.0072
RA_OF_ASC_NODE = 279.4199
ARG_OF_PERICENTER = 356.0853
MEAN_ANOMALY   = 4.0188

EPHEMERIS_TYPE = 0
CLASSIFICATION_TYPE = U
NORAD_CAT_ID   = 22566
ELEMENT_SET_NO = 999
REV_AT_EPOCH   = 69784
BSTAR          = -.18897E-4
MEAN_MOTION_DOT = -.84E-6
MEAN_MOTION_DDOT = 0

CCSDS_OMM_VERS = 2.0
CREATION_DATE  = 
ORIGINATOR     = 

OBJECT_NAME    = COSMOS 2242
OBJECT_ID      = 1993-024A
CENTER_NAME    = EARTH
REF_FRAME      = TEME
TIME_SYSTEM    = UTC
MEAN_ELEMENT_THEORY = SGP/SGP4

EPOCH          = 2026-02-07T03:29:29.902272
MEAN_MOTION    = 14.96422244
ECCENTRICITY   = .0017688
INCLINATION    = 82.5193
RA_OF_ASC_NODE = 295.9303
ARG_OF_PERICENTER = 51.2919
MEAN_ANOMALY   = 308.9881

EPHEMERIS_TYPE = 0
CLASSIFICATION_TYPE = U
NORAD_CAT_ID   = 22626
ELEMENT_SET_NO = 999
REV_AT_EPOCH   = 77582
BSTAR          = .23901E-3
MEAN_MOTION_DOT = .2743E-4
MEAN_MOTION_DDOT = 0

CCSDS_OMM_VERS = 2.0
CREATION_DATE  = 
ORIGINATOR     = 

OBJECT_NAME    = SL-16 R/B
OBJECT_ID      = 1993-059B
CENTER_NAME    = EARTH
REF_FRAME      = TEME
TIME_SYSTEM    = UTC
MEAN_ELEMENT_THEORY = SGP/SGP4

EPOCH          = 2026-02-07T04:44:25.245888
MEAN_MOTION    = 14.17226937
ECCENTRICITY   = .0019491
INCLINATION    = 70.9892
RA_OF_ASC_NODE = 75.4314
ARG_OF_PERICENTER = 258.3193
MEAN_ANOMALY   = 101.5744

EPHEMERIS_TYPE = 0
CLASSIFICATION_TYPE = U
NORAD_CAT_ID   = 22803
ELEMENT_SET_NO = 999
REV_AT_EPOCH   = 67521
BSTAR          = .13515E-3
MEAN_MOTION_DOT = .225E-5
MEAN_MOTION_DDOT = 0

CCSDS_OMM_VERS = 2.0
CREATION_DATE  = 
ORIGINATOR     = 

OBJECT_NAME    = ARIANE 40 R/B
OBJECT_ID      = 1993-061H
CENTER_NAME    = EARTH
REF_FRAME      = TEME
TIME_SYSTEM    = UTC
MEAN_ELEMENT_THEORY = SGP/SGP4

EPOCH          = 2026-02-07T04:22:46.908768
MEAN_MOTION    = 14.32844723
ECCENTRICITY   = .0010913
INCLINATION    = 98.4981
RA_OF_ASC_NODE = 107.6623
ARG_OF_PERICENTER = 20.5486
MEAN_ANOMALY   = 339.6135

EPHEMERIS_TYPE = 0
CLASSIFICATION_TYPE = U
NORAD_CAT_ID   = 22830
ELEMENT_SET_NO = 999
REV_AT_EPOCH   = 68973
BSTAR          = .1182E-3
MEAN_MOTION_DOT = .279E-5
MEAN_MOTION_DDOT = 0

CCSDS_OMM_VERS = 2.0
CREATION_DATE  = 
ORIGINATOR     = 

OBJECT_NAME    = COSMOS 2278
OBJECT_ID      = 1994-023A
CENTER_NAME    = EARTH
REF_FRAME      = TEME
TIME_SYSTEM    = UTC
MEAN_ELEMENT_THEORY = SGP/SGP4

EPOCH          = 2026-02-06T23:22:49.133856
MEAN_MOTION    = 14.14364063
ECCENTRICITY   = .0006539
INCLINATION    = 71.0502
RA_OF_ASC_NODE = 239.3599
ARG_OF_PERICENTER = 71.3945
MEAN_ANOMALY   = 288.7887

EPHEMERIS_TYPE = 0
CLASSIFICATION_TYPE = U
NORAD_CAT_ID   = 23087
ELEMENT_SET_NO = 999
REV_AT_EPOCH   = 64046
BSTAR          = -.7386E-4
MEAN_MOTION_DOT = -.189E-5
MEAN_MOTION_DDOT = 0

CCSDS_OMM_VERS = 2.0
CREATION_DATE  = 
ORIGINATOR     = 

OBJECT_NAME    = SL-16 R/B
OBJECT_ID      = 1994-023B
CENTER_NAME    = EARTH
REF_FRAME      = TEME
TIME_SYSTEM    = UTC
MEAN_ELEMENT_THEORY = SGP/SGP4

EPOCH          = 2026-02-06T18:02:37.531392
MEAN_MOTION    = 14.15003498
ECCENTRICITY   = .00044571
INCLINATION    = 70.9998
RA_OF_ASC_NODE = 135.8619
ARG_OF_PERICENTER = 314.1094
MEAN_ANOMALY   = 45.9661

EPHEMERIS_TYPE = 0
CLASSIFICATION_TYPE = U
NORAD_CAT_ID   = 23088
ELEMENT_SET_NO = 999
REV_AT_EPOCH   = 64171
BSTAR          = .12581352E-4
MEAN_MOTION_DOT = -.23E-6
MEAN_MOTION_DDOT = 0

CCSDS_OMM_VERS = 2.0
CREATION_DATE  = 
ORIGINATOR     = 

OBJECT_NAME    = SL-16 R/B
OBJECT_ID      = 1994-074B
CENTER_NAME    = EARTH
REF_FRAME      = TEME
TIME_SYSTEM    = UTC
MEAN_ELEMENT_THEORY = SGP/SGP4

EPOCH          = 2026-02-07T01:53:59.530272
MEAN_MOTION    = 14.79371264
ECCENTRICITY   = .0005784
INCLINATION    = 97.7149
RA_OF_ASC_NODE = 70.1312
ARG_OF_PERICENTER = 332.8982
MEAN_ANOMALY   = 50.3189

EPHEMERIS_TYPE = 0
CLASSIFICATION_TYPE = U
NORAD_CAT_ID   = 23343
ELEMENT_SET_NO = 999
REV_AT_EPOCH   = 68272
BSTAR          = .99252E-4
MEAN_MOTION_DOT = .69E-5
MEAN_MOTION_DDOT = 0

CCSDS_OMM_VERS = 2.0
CREATION_DATE  = 
ORIGINATOR     = 

OBJECT_NAME    = SL-16 R/B
OBJECT_ID      = 1994-077B
CENTER_NAME    = EARTH
REF_FRAME      = TEME
TIME_SYSTEM    = UTC
MEAN_ELEMENT_THEORY = SGP/SGP4

EPOCH          = 2026-02-07T04:04:05.265696
MEAN_MOTION    = 14.15556792
ECCENTRICITY   = .0004363
INCLINATION    = 70.9814
RA_OF_ASC_NODE = 56.6979
ARG_OF_PERICENTER = 237.7421
MEAN_ANOMALY   = 122.3279

EPHEMERIS_TYPE = 0
CLASSIFICATION_TYPE = U
NORAD_CAT_ID   = 23405
ELEMENT_SET_NO = 999
REV_AT_EPOCH   = 61191
BSTAR          = .43333E-4
MEAN_MOTION_DOT = .37E-6
MEAN_MOTION_DDOT = 0

CCSDS_OMM_VERS = 2.0
CREATION_DATE  = 
ORIGINATOR     = 

OBJECT_NAME    = ARIANE 40+ R/B
OBJECT_ID      = 1995-021B
CENTER_NAME    = EARTH
REF_FRAME      = TEME
TIME_SYSTEM    = UTC
MEAN_ELEMENT_THEORY = SGP/SGP4

EPOCH          = 2026-02-07T04:01:24.110688
MEAN_MOTION    = 14.39749779
ECCENTRICITY   = .0005994
INCLINATION    = 98.4560
RA_OF_ASC_NODE = 110.0542
ARG_OF_PERICENTER = 226.3215
MEAN_ANOMALY   = 187.7433

EPHEMERIS_TYPE = 0
CLASSIFICATION_TYPE = U
NORAD_CAT_ID   = 23561
ELEMENT_SET_NO = 999
REV_AT_EPOCH   = 61485
BSTAR          = .14436E-3
MEAN_MOTION_DOT = .409E-5
MEAN_MOTION_DDOT = 0

CCSDS_OMM_VERS = 2.0
CREATION_DATE  = 
ORIGINATOR     = 

OBJECT_NAME    = SL-16 R/B
OBJECT_ID      = 1995-058B
CENTER_NAME    = EARTH
REF_FRAME      = TEME
TIME_SYSTEM    = UTC
MEAN_ELEMENT_THEORY = SGP/SGP4

EPOCH          = 2026-02-07T00:48:28.363104
MEAN_MOTION    = 14.15491427
ECCENTRICITY   = .001237
INCLINATION    = 71.0189
RA_OF_ASC_NODE = 244.6166
ARG_OF_PERICENTER = 176.1023
MEAN_ANOMALY   = 184.0199

EPHEMERIS_TYPE = 0
CLASSIFICATION_TYPE = U
NORAD_CAT_ID   = 23705
ELEMENT_SET_NO = 999
REV_AT_EPOCH   = 56351
BSTAR          = .183E-3
MEAN_MOTION_DOT = .31E-5
MEAN_MOTION_DDOT = 0

CCSDS_OMM_VERS = 2.0
CREATION_DATE  = 
ORIGINATOR     = 

OBJECT_NAME    = SL-16 R/B
OBJECT_ID      = 1996-051B
CENTER_NAME    = EARTH
REF_FRAME      = TEME
TIME_SYSTEM    = UTC
MEAN_ELEMENT_THEORY = SGP/SGP4

EPOCH          = 2026-02-07T00:06:33.917472
MEAN_MOTION    = 14.12406829
ECCENTRICITY   = .0017656
INCLINATION    = 70.7565
RA_OF_ASC_NODE = 240.1888
ARG_OF_PERICENTER = 190.8812
MEAN_ANOMALY   = 169.1929

EPHEMERIS_TYPE = 0
CLASSIFICATION_TYPE = U
NORAD_CAT_ID   = 24298
ELEMENT_SET_NO = 999
REV_AT_EPOCH   = 51731
BSTAR          = .68908E-4
MEAN_MOTION_DOT = .78E-6
MEAN_MOTION_DDOT = 0

CCSDS_OMM_VERS = 2.0
CREATION_DATE  = 
ORIGINATOR     = 

OBJECT_NAME    = ORBVIEW 2 (SEASTAR)
OBJECT_ID      = 1997-037A
CENTER_NAME    = EARTH
REF_FRAME      = TEME
TIME_SYSTEM    = UTC
MEAN_ELEMENT_THEORY = SGP/SGP4

EPOCH          = 2026-02-07T00:39:38.090016
MEAN_MOTION    = 14.35470823
ECCENTRICITY   = .0002871
INCLINATION    = 98.8513
RA_OF_ASC_NODE = 201.5363
ARG_OF_PERICENTER = 134.4893
MEAN_ANOMALY   = 225.6527

EPHEMERIS_TYPE = 0
CLASSIFICATION_TYPE = U
NORAD_CAT_ID   = 24883
ELEMENT_SET_NO = 999
REV_AT_EPOCH   = 50407
BSTAR          = .1689E-3
MEAN_MOTION_DOT = .439E-5
MEAN_MOTION_DDOT = 0

